NORAD_CAT_ID,OBJECT_NAME,OBJECT_TYPE,EPOCH,MEAN_MOTION,ECCENTRICITY,INCLINATION,RA_OF_ASC_NODE,ARG_OF_PERICENTER,MEAN_ANOMALY,BSTAR,MEAN_MOTION_DOT,MEAN_MOTION_DDOT,TLE_LINE0,TLE_LINE1,TLE_LINE2,SEMIMAJOR_AXIS,PERIOD,APOGEE,PERIGEE,DECAYED
55662.0,STARLINK-5479,PAYLOAD,2023-04-13 01:47:35,15.699231,0.0002609,70.0025,357.251,280.6197,79.4705,2.8543e-05,3.221e-05,0.0,0 STARLINK-5479,1 55662U 23021AL  23103.07471955  .00003221  00000-0  28543-4 0  9993,2 55662  70.0025 357.2510 0002609 280.6197  79.4705 15.69923100  9370,6737.254,91.724,360.877,357.361,0.0
55662.0,STARLINK-5479,PAYLOAD,2023-04-14 12:57:54,15.6990406,0.0003146,70.0006,353.1293,274.0876,85.996,-1.9117e-05,-2.508e-05,0.0,0 STARLINK-5479,1 55662U 23021AL  23104.54021498 -.00002508  00000-0 -19117-4 0  9995,2 55662  70.0006 353.1293 0003146 274.0876  85.9960 15.69904060  9605,6737.308,91.725,361.293,357.054,0.0
55662.0,STARLINK-5479,PAYLOAD,2023-04-14 19:04:54,15.69925579,0.0002586,70.0021,352.4133,246.9433,113.149,2.2315e-05,2.472e-05,0.0,0 STARLINK-5479,1 55662U 23021AL  23104.79507226  .00002472  00000-0  22315-4 0  9992,2 55662  70.0021 352.4133 0002586 246.9433 113.1490 15.69925579  9331,6737.247,91.724,360.854,357.37,0.0
55662.0,STARLINK-5479,PAYLOAD,2023-04-15 04:15:24,15.6993488,0.0003136,70.0007,351.338,264.4949,95.5889,4.4495e-05,5.143e-05,0.0,0 STARLINK-5479,1 55662U 23021AL  23105.17736638  .00005143  00000-0  44495-4 0  9997,2 55662  70.0007 351.3380 0003136 264.4949  95.5889 15.69934880  9707,6737.22,91.724,361.198,356.973,0.0
55662.0,STARLINK-5479,PAYLOAD,2023-04-15 19:32:55,15.69929059,0.0003196,70.0021,349.548,268.8988,91.1841,1.6898e-05,1.82e-05,0.0,0 STARLINK-5479,1 55662U 23021AL  23105.81453596  .00001820  00000-0  16898-4 0  9991,2 55662  70.0021 349.5480 0003196 268.8988  91.1841 15.69929059  9803,6737.237,91.724,361.255,356.949,0.0
55662.0,STARLINK-5479,PAYLOAD,2023-04-16 04:43:26,15.69933523,0.0003687,69.9992,348.4728,271.4289,88.6484,2.753e-05,3.1e-05,0.0,0 STARLINK-5479,1 55662U 23021AL  23106.19683319  .00003100  00000-0  27530-4 0  9999,2 55662  69.9992 348.4728 0003687 271.4289  88.6484 15.69933523  9860,6737.224,91.724,361.573,356.605,0.0
55662.0,STARLINK-5479,PAYLOAD,2023-04-16 18:29:13,15.69919359,0.0003777,70.0005,346.8612,272.4256,87.6507,-1.3381e-05,-1.821e-05,0.0,0 STARLINK-5479,1 55662U 23021AL  23106.77028963 -.00001821  00000-0 -13381-4 0  9990,2 55662  70.0005 346.8612 0003777 272.4256  87.6507 15.69919359  9953,6737.265,91.724,361.674,356.585,0.0
55662.0,STARLINK-5479,PAYLOAD,2023-04-17 02:07:58,15.69933467,0.0003486,70.0003,345.9642,266.882,93.1977,1.893e-05,2.065e-05,0.0,0 STARLINK-5479,1 55662U 23021AL  23107.08886813  .00002065  00000-0  18930-4 0  9995,2 55662  70.0003 345.9642 0003486 266.8820  93.1977 15.69933467  9695,6737.224,91.724,361.438,356.741,0.0
55662.0,STARLINK-5479,PAYLOAD,2023-04-17 18:57:14,15.69927628,0.0003219,69.9996,343.9924,260.6655,99.4177,1.3871e-05,1.456e-05,0.0,0 STARLINK-5479,1 55662U 23021AL  23107.78975379  .00001456  00000-0  13871-4 0  9990,2 55662  69.9996 343.9924 0003219 260.6655  99.4177 15.69927628  9802,6737.241,91.724,361.275,356.937,0.0
55662.0,STARLINK-5479,PAYLOAD,2023-04-18 01:04:15,15.69933616,0.000317,69.9997,343.2762,262.1693,97.9143,3.3124e-05,3.773e-05,0.0,0 STARLINK-5479,1 55662U 23021AL  23108.04461885  .00003773  00000-0  33124-4 0  9999,2 55662  69.9997 343.2762 0003170 262.1693  97.9143 15.69933616 10151,6737.224,91.724,361.225,356.953,0.0
55662.0,STARLINK-5479,PAYLOAD,2023-04-18 17:53:31,15.69923977,0.0003246,70.0003,341.3068,263.1537,96.929,7.0797e-06,6.39e-06,0.0,0 STARLINK-5479,1 55662U 23021AL  23108.74550859  .00000639  00000-0  70797-5 0  9992,2 55662  70.0003 341.3068 0003246 263.1537  96.9290 15.69923977 10265,6737.251,91.724,361.303,356.93,0.0
55662.0,STARLINK-5479,PAYLOAD,2023-04-19 01:32:17,15.69930498,0.0002859,70.0004,340.4109,259.4925,100.5948,2.4395e-05,2.722e-05,0.0,0 STARLINK-5479,1 55662U 23021AL  23109.06408995  .00002722  00000-0  24395-4 0  9998,2 55662  70.0004 340.4109 0002859 259.4925 100.5948 15.69930498 10314,6737.233,91.724,361.024,357.172,0.0
55662.0,STARLINK-5479,PAYLOAD,2023-04-19 16:49:48,15.69921803,0.0003419,69.9989,338.619,269.13,90.9504,-6.4192e-07,-2.9e-06,0.0,0 STARLINK-5479,1 55662U 23021AL  23109.70125811 -.00000290  00000-0 -64192-6 0  9993,2 55662  69.9989 338.6190 0003419 269.1300  90.9504 15.69921803 10411,6737.258,91.724,361.426,356.819,0.0
55662.0,STARLINK-5479,PAYLOAD,2023-04-20 00:28:34,15.69931638,0.000293,69.9988,337.7232,275.1535,84.9326,2.8759e-05,3.248e-05,0.0,0 STARLINK-5479,1 55662U 23021AL  23110.01983962  .00003248  00000-0  28759-4 0  9999,2 55662  69.9988 337.7232 0002930 275.1535  84.9326 15.69931638 10154,6737.23,91.724,361.069,357.121,0.0
55662.0,STARLINK-5479,PAYLOAD,2023-04-20 18:49:36,15.69921133,0.000268,70.001,335.5752,238.2242,121.8693,-3.3555e-06,-6.16e-06,0.0,0 STARLINK-5479,1 55662U 23021AL  23110.78444593 -.00000616  00000-0 -33555-5 0  9994,2 55662  70.0010 335.5752 0002680 238.2242 121.8693 15.69921133 10587,6737.26,91.724,360.93,357.319,0.0
55662.0,STARLINK-5479,PAYLOAD,2023-04-21 02:28:21,15.69938468,0.0003272,69.9998,334.6775,260.4388,99.6438,4.2607e-05,4.916e-05,0.0,0 STARLINK-5479,1 55662U 23021AL  23111.10302135  .00004916  00000-0  42607-4 0  9998,2 55662  69.9998 334.6775 0003272 260.4388  99.6438 15.69938468 10320,6737.21,91.723,361.279,356.871,0.0
55662.0,STARLINK-5479,PAYLOAD,2023-04-21 08:35:21,15.69927273,0.0003545,69.9982,333.9606,265.0199,95.0592,2.6213e-05,2.941e-05,0.0,0 STARLINK-5479,1 55662U 23021AL  23111.35789256  .00002941  00000-0  26213-4 0  9999,2 55662  69.9982 333.9606 0003545 265.0199  95.0592 15.69927273 10369,6737.242,91.724,361.495,356.719,0.0
55662.0,STARLINK-5479,PAYLOAD,2023-04-21 20:49:22,15.69942249,0.0003219,69.9989,332.5272,255.7277,104.3562,5.8869e-05,6.877e-05,0.0,0 STARLINK-5479,1 55662U 23021AL  23111.86762074  .00006877  00000-0  58869-4 0  9998,2 55662  69.9989 332.5272 0003219 255.7277 104.3562 15.69942249 10755,6737.199,91.723,361.233,356.896,0.0
55662.0,STARLINK-5479,PAYLOAD,2023-04-22 21:17:24,15.69928096,0.0003277,70.0015,329.6616,254.5766,105.5067,2.3166e-05,2.574e-05,0.0,0 STARLINK-5479,1 55662U 23021AL  23112.88709294  .00002574  00000-0  23166-4 0  9998,2 55662  70.0015 329.6616 0003277 254.5766 105.5067 15.69928096 10602,6737.24,91.724,361.313,356.897,0.0
55662.0,STARLINK-5479,PAYLOAD,2023-04-23 01:52:40,15.69923747,0.0003857,70.0005,329.1246,258.3824,101.6938,8.8982e-06,8.57e-06,0.0,0 STARLINK-5479,1 55662U 23021AL  23113.07824383  .00000857  00000-0  88982-5 0  9997,2 55662  70.0005 329.1246 0003857 258.3824 101.6938 15.69923747 10945,6737.252,91.724,361.716,356.519,0.0
55662.0,STARLINK-5479,PAYLOAD,2023-04-23 17:10:11,15.69939638,0.0003957,69.9993,327.3315,262.7283,97.3463,6.7596e-05,7.929e-05,0.0,0 STARLINK-5479,1 55662U 23021AL  23113.71540862  .00007929  00000-0  67596-4 0  9999,2 55662  69.9993 327.3315 0003957 262.7283  97.3463 15.69939638 10731,6737.207,91.723,361.738,356.406,0.0
55662.0,STARLINK-5479,PAYLOAD,2023-04-23 23:17:11,15.69954643,0.0003735,69.9998,326.6156,260.3414,99.736,0.00014351,0.00017101,0.0,0 STARLINK-5479,1 55662U 23021AL  23113.97027187  .00017101  00000-0  14351-3 0  9990,2 55662  69.9998 326.6156 0003735 260.3414  99.7360 15.69954643 10774,6737.164,91.722,361.545,356.512,0.0
55662.0,STARLINK-5479,PAYLOAD,2023-04-24 17:38:12,15.69946404,0.0002876,70.0016,324.4666,248.6227,111.4662,6.6413e-05,7.787e-05,0.0,0 STARLINK-5479,1 55662U 23021AL  23114.73486766  .00007787  00000-0  66413-4 0  9993,2 55662  70.0016 324.4666 0002876 248.6227 111.4662 15.69946404 10892,6737.187,91.723,360.99,357.115,0.0
55662.0,STARLINK-5479,PAYLOAD,2023-04-24 23:45:14,15.69885749,0.0003642,70.0014,323.7512,263.36,96.7181,-0.00012343,-0.00015005,0.0,0 STARLINK-5479,1 55662U 23021AL  23114.98974982 -.00015005  00000-0 -12343-3 0  9998,2 55662  70.0014 323.7512 0003642 263.3600  96.7181 15.69885749 10933,6737.361,91.726,361.68,356.772,0.0
55662.0,STARLINK-5479,PAYLOAD,2023-04-25 13:31:02,15.69875043,0.0003922,70.0003,322.1371,269.9727,90.102,-8.5098e-05,-0.00010413,0.0,0 STARLINK-5479,1 55662U 23021AL  23115.56321847 -.00010413  00000-0 -85098-4 0  9995,2 55662  70.0003 322.1371 0003922 269.9727  90.1020 15.69875043 11331,6737.392,91.727,361.899,356.614,0.0
55662.0,STARLINK-5479,PAYLOAD,2023-04-26 01:45:02,15.69929106,0.0003509,70.0017,320.7038,267.1525,92.9269,0.00010808,0.00012806,0.0,0 STARLINK-5479,1 55662U 23021AL  23116.07294913  .00012806  00000-0  10808-3 0  9997,2 55662  70.0017 320.7038 0003509 267.1525  92.9269 15.69929106 11411,6737.237,91.724,361.466,356.738,0.0
55662.0,STARLINK-5479,PAYLOAD,2023-04-26 15:30:47,15.69951661,0.0004443,70.006,319.0976,274.4204,85.6484,0.00017585,0.00021013,0.0,0 STARLINK-5479,1 55662U 23021AL  23116.64638785  .00021013  00000-0  17585-3 0  9998,2 55662  70.0060 319.0976 0004443 274.4204  85.6484 15.69951661 11503,6737.172,91.723,362.031,356.044,0.0
55662.0,STARLINK-5479,PAYLOAD,2023-04-27 00:41:18,15.69933992,0.0003818,70.0,318.0163,269.5839,90.4919,4.2334e-05,4.883e-05,0.0,0 STARLINK-5479,1 55662U 23021AL  23117.02868646  .00004883  00000-0  42334-4 0  9999,2 55662  70.0000 318.0163 0003818 269.5839  90.4919 15.69933992 11254,6737.223,91.724,361.66,356.516,0.0
55662.0,STARLINK-5479,PAYLOAD,2023-04-28 01:09:19,15.69937113,0.0003786,69.9995,315.1504,270.168,89.9082,-2.2549e-05,-2.925e-05,0.0,0 STARLINK-5479,1 55662U 23021AL  23118.04814338 -.00002925  00000-0 -22549-4 0  9994,2 55662  69.9995 315.1504 0003786 270.1680  89.9082 15.69937113 11418,6737.214,91.723,361.63,356.528,0.0
55662.0,STARLINK-5479,PAYLOAD,2023-04-28 21:02:06,15.69926372,0.0003186,69.9986,312.8217,266.0476,94.0356,1.8608e-05,2.025e-05,0.0,0 STARLINK-5479,1 55662U 23021AL  23118.87646893  .00002025  00000-0  18608-4 0  9994,2 55662  69.9986 312.8217 0003186 266.0476  94.0356 15.69926372 11544,6737.245,91.724,361.256,356.963,0.0
